NORAD_CAT_ID,OBJECT_NAME,OBJECT_TYPE,EPOCH,MEAN_MOTION,ECCENTRICITY,INCLINATION,RA_OF_ASC_NODE,ARG_OF_PERICENTER,MEAN_ANOMALY,BSTAR,MEAN_MOTION_DOT,MEAN_MOTION_DDOT,TLE_LINE0,TLE_LINE1,TLE_LINE2,SEMIMAJOR_AXIS,PERIOD,APOGEE,PERIGEE,DECAYED
53282.0,STARLINK-4164,PAYLOAD,2023-05-02 11:02:08,15.08847022,9.65e-05,53.2162,182.873,86.7539,273.3564,0.00028322,4.223e-05,0.0,0 STARLINK-4164,1 53282U 22086AS  23122.45981677  .00004223  00000-0  28322-3 0  9996,2 53282  53.2162 182.8730 0000965  86.7539 273.3564 15.08847022 43855,6917.859,95.437,540.391,539.056,0.0
53282.0,STARLINK-4164,PAYLOAD,2023-05-02 14:12:54,15.08850907,9.61e-05,53.2163,182.2784,81.9752,278.1349,0.00034239,5.167e-05,0.0,0 STARLINK-4164,1 53282U 22086AS  23122.59229524  .00005167  00000-0  34239-3 0  9999,2 53282  53.2163 182.2784 0000961  81.9752 278.1349 15.08850907 43871,6917.847,95.437,540.377,539.047,0.0
53282.0,STARLINK-4164,PAYLOAD,2023-05-03 12:28:18,15.08837975,0.0001092,53.217,178.1168,89.2349,270.8768,9.5818e-05,1.237e-05,0.0,0 STARLINK-4164,1 53282U 22086AS  23123.51966127  .00001237  00000-0  95818-4 0  9994,2 53282  53.2170 178.1168 0001092  89.2349 270.8768 15.08837975 43849,6917.887,95.438,540.507,538.996,0.0
53282.0,STARLINK-4164,PAYLOAD,2023-05-04 12:19:05,15.08842989,0.0001048,53.2161,173.6557,86.8985,273.2127,5.175e-05,5.36e-06,0.0,0 STARLINK-4164,1 53282U 22086AS  23124.51325896  .00000536  00000-0  51750-4 0  9995,2 53282  53.2161 173.6557 0001048  86.8985 273.2127 15.08842989 44164,6917.871,95.437,540.461,539.011,0.0
53282.0,STARLINK-4164,PAYLOAD,2023-05-05 08:59:06,15.08842389,9.47e-05,53.2162,169.789,91.8441,268.2659,0.00010917,1.45e-05,0.0,0 STARLINK-4164,1 53282U 22086AS  23125.37438110  .00001450  00000-0  10917-3 0  9999,2 53282  53.2162 169.7890 0000947  91.8441 268.2659 15.08842389 44125,6917.873,95.437,540.393,539.083,0.0
53282.0,STARLINK-4164,PAYLOAD,2023-05-05 20:06:48,15.08840384,9.87e-05,53.2159,167.7071,86.3323,273.7782,9.001e-05,1.145e-05,0.0,0 STARLINK-4164,1 53282U 22086AS  23125.83806302  .00001145  00000-0  90010-4 0  9996,2 53282  53.2159 167.7071 0000987  86.3323 273.7782 15.08840384 44369,6917.879,95.438,540.427,539.061,0.0
53282.0,STARLINK-4164,PAYLOAD,2023-05-06 07:14:30,15.08842366,0.0001017,53.2156,165.625,90.5715,269.5393,8.4466e-05,1.057e-05,0.0,0 STARLINK-4164,1 53282U 22086AS  23126.30174301  .00001057  00000-0  84466-4 0  9996,2 53282  53.2156 165.6250 0001017  90.5715 269.5393 15.08842366 44430,6917.873,95.437,540.442,539.035,0.0
53282.0,STARLINK-4164,PAYLOAD,2023-05-07 02:19:08,15.0884002,9.93e-05,53.2153,162.0563,89.0154,271.0952,2.4021e-05,9.5e-07,0.0,0 STARLINK-4164,1 53282U 22086AS  23127.09662569  .00000095  00000-0  24021-4 0  9993,2 53282  53.2153 162.0563 0000993  89.0154 271.0952 15.08840020 44385,6917.88,95.438,540.432,539.058,0.0
53282.0,STARLINK-4164,PAYLOAD,2023-05-07 08:40:41,15.08837814,9.69e-05,53.2153,160.8665,90.0455,270.0648,-2.6658e-06,-3.3e-06,0.0,0 STARLINK-4164,1 53282U 22086AS  23127.36158771 -.00000330  00000-0 -26658-5 0  9991,2 53282  53.2153 160.8665 0000969  90.0455 270.0648 15.08837814 44594,6917.887,95.438,540.422,539.082,0.0
53282.0,STARLINK-4164,PAYLOAD,2023-05-07 19:48:23,15.0883645,9.19e-05,53.2155,158.7849,90.5871,269.5226,2.2245e-05,6.6e-07,0.0,0 STARLINK-4164,1 53282U 22086AS  23127.82526838  .00000066  00000-0  22245-4 0  9996,2 53282  53.2155 158.7849 0000919  90.5871 269.5226 15.08836450 44666,6917.891,95.438,540.392,539.12,0.0
53282.0,STARLINK-4164,PAYLOAD,2023-05-08 05:20:41,15.08838555,8.99e-05,53.2154,157.0005,90.9077,269.2018,7.2634e-05,8.68e-06,0.0,0 STARLINK-4164,1 53282U 22086AS  23128.22270587  .00000868  00000-0  72634-4 0  9995,2 53282  53.2154 157.0005 0000899  90.9077 269.2018 15.08838555 44552,6917.885,95.438,540.372,539.128,0.0
53282.0,STARLINK-4164,PAYLOAD,2023-05-08 11:42:14,15.08843313,9.73e-05,53.2157,155.8124,79.6402,280.47,0.00010565,1.394e-05,0.0,0 STARLINK-4164,1 53282U 22086AS  23128.48766221  .00001394  00000-0  10565-3 0  9997,2 53282  53.2157 155.8124 0000973  79.6402 280.4700 15.08843313 44766,6917.87,95.437,540.408,539.062,0.0
53282.0,STARLINK-4164,PAYLOAD,2023-05-09 11:33:01,15.0884222,0.0001099,53.2165,151.3523,79.5299,280.5817,0.00012475,1.698e-05,0.0,0 STARLINK-4164,1 53282U 22086AS  23129.48126343  .00001698  00000-0  12475-3 0  9992,2 53282  53.2165 151.3523 0001099  79.5299 280.5817 15.08842220 44746,6917.874,95.437,540.499,538.978,0.0
53282.0,STARLINK-4164,PAYLOAD,2023-05-10 09:48:25,15.08808905,0.000116,53.2158,147.1884,83.2386,276.8738,0.00046338,7.088e-05,0.0,0 STARLINK-4164,1 53282U 22086AS  23130.40863413  .00007088  00000-0  46338-3 0  9996,2 53282  53.2158 147.1884 0001160  83.2386 276.8738 15.08808905 45056,6917.975,95.44,540.643,539.038,0.0
53282.0,STARLINK-4164,PAYLOAD,2023-05-10 17:45:21,15.08841382,0.0001032,53.2154,145.701,67.6466,292.4636,-1.8644e-05,-5.84e-06,0.0,0 STARLINK-4164,1 53282U 22086AS  23130.73982790 -.00000584  00000-0 -18644-4 0  9998,2 53282  53.2154 145.7010 0001032  67.6466 292.4636 15.08841382 44933,6917.876,95.437,540.455,539.027,0.0
53282.0,STARLINK-4164,PAYLOAD,2023-05-11 06:28:26,15.08837939,0.0001076,53.2155,143.322,77.177,282.9343,-8.469e-06,-4.23e-06,0.0,0 STARLINK-4164,1 53282U 22086AS  23131.26975073 -.00000423  00000-0 -84690-5 0  9990,2 53282  53.2155 143.3220 0001076  77.1770 282.9343 15.08837939 45183,6917.887,95.438,540.496,539.007,0.0
53282.0,STARLINK-4164,PAYLOAD,2023-05-11 17:36:08,15.08847347,0.0001021,53.2157,141.2411,88.0093,272.1016,-0.00010576,-1.971e-05,0.0,0 STARLINK-4164,1 53282U 22086AS  23131.73342700 -.00001971  00000-0 -10576-3 0  9996,2 53282  53.2157 141.2411 0001021  88.0093 272.1016 15.08847347 45253,6917.858,95.437,540.429,539.017,0.0
53282.0,STARLINK-4164,PAYLOAD,2023-05-11 22:22:17,15.08835523,0.0001047,53.2155,140.3491,83.7867,276.3244,5.4551e-05,5.8e-06,0.0,0 STARLINK-4164,1 53282U 22086AS  23131.93215127  .00000580  00000-0  54551-4 0  9995,2 53282  53.2155 140.3491 0001047  83.7867 276.3244 15.08835523 45115,6917.894,95.438,540.483,539.035,0.0
53282.0,STARLINK-4164,PAYLOAD,2023-05-12 04:43:50,15.08836939,0.0001066,53.2156,139.1597,86.4767,273.6347,4.6604e-05,4.54e-06,0.0,0 STARLINK-4164,1 53282U 22086AS  23132.19711138  .00000454  00000-0  46604-4 0  9997,2 53282  53.2156 139.1597 0001066  86.4767 273.6347 15.08836939 45328,6917.89,95.438,540.492,539.017,0.0
53282.0,STARLINK-4164,PAYLOAD,2023-05-12 17:26:55,15.08839781,0.0001078,53.2157,136.7807,84.8857,275.2258,7.2613e-05,8.68e-06,0.0,0 STARLINK-4164,1 53282U 22086AS  23132.72702942  .00000868  00000-0  72613-4 0  9997,2 53282  53.2157 136.7807 0001078  84.8857 275.2258 15.08839781 45407,6917.881,95.438,540.492,539.0,0.0
53282.0,STARLINK-4164,PAYLOAD,2023-05-13 06:10:00,15.08842906,0.0001078,53.2156,134.402,84.7172,275.3943,0.00010415,1.37e-05,0.0,0 STARLINK-4164,1 53282U 22086AS  23133.25694684  .00001370  00000-0  10415-3 0  9999,2 53282  53.2156 134.4020 0001078  84.7172 275.3943 15.08842906 45312,6917.872,95.437,540.482,538.991,0.0
53282.0,STARLINK-4164,PAYLOAD,2023-05-13 09:20:46,15.08844767,0.0001093,53.2156,133.807,84.4167,275.695,0.00011039,1.47e-05,0.0,0 STARLINK-4164,1 53282U 22086AS  23133.38942543  .00001470  00000-0  11039-3 0  9997,2 53282  53.2156 133.8070 0001093  84.4167 275.6950 15.08844767 45507,6917.866,95.437,540.487,538.975,0.0
53282.0,STARLINK-4164,PAYLOAD,2023-05-13 17:17:42,15.08838445,0.000109,53.2155,132.3198,83.1263,276.9853,5.2064e-05,5.41e-06,0.0,0 STARLINK-4164,1 53282U 22086AS  23133.72063043  .00000541  00000-0  52064-4 0  9996,2 53282  53.2155 132.3198 0001090  83.1263 276.9853 15.08838445 45558,6917.885,95.438,540.504,538.996,0.0
53282.0,STARLINK-4164,PAYLOAD,2023-05-14 06:00:47,15.08836833,0.0001131,53.2155,129.9412,83.8313,276.2808,2.3752e-05,9e-07,0.0,0 STARLINK-4164,1 53282U 22086AS  23134.25055341  .00000090  00000-0  23752-4 0  9998,2 53282  53.2155 129.9412 0001131  83.8313 276.2808 15.08836833 45460,6917.89,95.438,540.537,538.973,0.0
53282.0,STARLINK-4164,PAYLOAD,2023-05-14 09:11:33,15.08838748,0.0001164,53.2154,129.3467,82.6075,277.505,4.0648e-05,3.59e-06,0.0,0 STARLINK-4164,1 53282U 22086AS  23134.38303192  .00000359  00000-0  40648-4 0  9993,2 53282  53.2154 129.3467 0001164  82.6075 277.5050 15.08838748 45652,6917.884,95.438,540.554,538.944,0.0
53282.0,STARLINK-4164,PAYLOAD,2023-05-14 17:08:29,15.08840394,0.0001167,53.2155,127.8598,82.3058,277.8066,3.5716e-05,2.81e-06,0.0,0 STARLINK-4164,1 53282U 22086AS  23134.71423069  .00000281  00000-0  35716-4 0  9990,2 53282  53.2155 127.8598 0001167  82.3058 277.8066 15.08840394 45708,6917.879,95.438,540.552,538.937,0.0
53282.0,STARLINK-4164,PAYLOAD,2023-05-15 05:51:34,15.08845503,0.0001174,53.2156,125.4802,84.8078,275.3048,4.1182e-05,3.68e-06,0.0,0 STARLINK-4164,1 53282U 22086AS  23135.24414606  .00000368  00000-0  41182-4 0  9996,2 53282  53.2156 125.4802 0001174  84.8078 275.3048 15.08845503 45618,6917.864,95.437,540.541,538.916,0.0
53282.0,STARLINK-4164,PAYLOAD,2023-05-16 05:42:21,15.08836709,0.00012,53.2156,121.0182,90.8912,269.2217,4.7493e-05,4.68e-06,0.0,0 STARLINK-4164,1 53282U 22086AS  23136.23775162  .00000468  00000-0  47493-4 0  9995,2 53282  53.2156 121.0182 0001200  90.8912 269.2217 15.08836709 45769,6917.89,95.438,540.586,538.925,0.0
53282.0,STARLINK-4164,PAYLOAD,2023-05-16 08:53:08,15.08836186,0.0001204,53.2158,120.4237,90.7916,269.3214,3.9011e-05,3.33e-06,0.0,0 STARLINK-4164,1 53282U 22086AS  23136.37023248  .00000333  00000-0  39011-4 0  9999,2 53282  53.2158 120.4237 0001204  90.7916 269.3214 15.08836186 45950,6917.892,95.438,540.59,538.924,0.0
53282.0,STARLINK-4164,PAYLOAD,2023-05-17 08:43:55,15.08837766,0.0001212,53.216,115.9637,90.8106,269.3025,-1.0954e-06,-3.05e-06,0.0,0 STARLINK-4164,1 53282U 22086AS  23137.36383418 -.00000305  00000-0 -10954-5 0  9994,2 53282  53.2160 115.9637 0001212  90.8106 269.3025 15.08837766 45930,6917.887,95.438,540.591,538.914,0.0
